IRIDIUM 135             
1 43070U 17083A   26162.50031459  .00000025  00000+0  18238-5 0  9990
2 43070  86.3962 324.3936 0002166  91.4209 268.7235 14.34217679443334
IRIDIUM 138             
1 43071U 17083B   26162.52568528  .00000112  00000+0  33064-4 0  9995
2 43071  86.3977 324.0777 0002383  87.7808 272.3661 14.34218167443321
IRIDIUM 116             
1 43072U 17083C   26162.49397181  .00000045  00000+0  90012-5 0  9999
2 43072  86.3959 324.3822 0001883  95.3681 264.7730 14.34217568443353
IRIDIUM 130             
1 43073U 17083D   26162.46225793 -.00000093  00000+0 -40443-4 0  9993
2 43073  86.3965 324.6703 0001837  89.0856 271.0550 14.34217257443294
IRIDIUM 151             
1 43074U 17083E   26162.50665713  .00000036  00000+0  56628-5 0  9997
2 43074  86.3962 324.4347 0002127  92.5204 267.6235 14.34217635443328
IRIDIUM 134             
1 43075U 17083F   26162.54471247  .00000006  00000+0 -50320-5 0  9990
2 43075  86.3959 324.4266 0001971  89.5730 270.5692 14.34217577443292
IRIDIUM 137             
1 43076U 17083G   26162.48762934  .00000042  00000+0  78383-5 0  9998
2 43076  86.3964 324.5431 0002083 103.3994 256.7434 14.34217573443359
IRIDIUM 141             
1 43077U 17083H   26162.48128669  .00000067  00000+0  16760-4 0  9997
2 43077  86.3959 324.3768 0002209  90.7535 269.3914 14.34217947443353
IRIDIUM 153             
1 43078U 17083J   26162.64277126  .00000017  00000+0 -82170-6 0  9995
2 43078  86.3955 292.7895 0002180  90.4152 269.7293 14.34217586444487
IRIDIUM 131             
1 43079U 17083K   26162.53837027  .00000000  00000+0 -70075-5 0  9998
2 43079  86.3963 324.5387 0002082  91.7581 268.3853 14.34217340443291
IRIDIUM 144             
1 43249U 18030A   26162.64911338  .00000040  00000+0  70720-5 0  9990
2 43249  86.3955 292.7158 0002061  95.7130 264.4301 14.34217691429348
IRIDIUM 149             
1 43250U 18030B   26162.65545601  .00000028  00000+0  30763-5 0  9998
2 43250  86.3954 292.6804 0002238  93.3371 266.8081 14.34217872429367
IRIDIUM 157             
1 43251U 18030C   26162.60471560  .00000010  00000+0 -36687-5 0  9999
2 43251  86.3953 292.7547 0002078  94.1178 266.0255 14.34217526429336
IRIDIUM 140             
1 43252U 18030D   26162.41443740  .00000017  00000+0 -10460-5 0  9996
2 43252  86.3954 292.8470 0002008  92.9536 267.1889 14.34217602429364
IRIDIUM 145             
1 43253U 18030E   26162.61105697  .00000245  00000+0  80344-4 0  9994
2 43253  86.3955 292.7368 0001894  98.7640 261.3771 14.34217769429329
IRIDIUM 146             
1 43254U 18030F   26162.59203017  .00000018  00000+0 -74683-6 0  9997
2 43254  86.3956 292.7570 0002088  95.9032 264.2402 14.34217654429333
IRIDIUM 148             
1 43255U 18030G   26162.63008625 -.00000004  00000+0 -86347-5 0  9996
2 43255  86.3955 292.7843 0002090  97.2150 262.9283 14.34217203429371
IRIDIUM 142             
1 43256U 18030H   26162.59837214  .00000146  00000+0  45167-4 0  9995
2 43256  86.3953 292.6865 0002018  96.9179 263.2246 14.34217011429336
IRIDIUM 150             
1 43257U 18030J   26162.63642824  .00000006  00000+0 -47441-5 0  9996
2 43257  86.3953 292.7869 0002017  93.1251 267.0175 14.34217534429367
IRIDIUM 143             
1 43258U 18030K   26162.61740041  .00000206  00000+0  66546-4 0  9992
2 43258  86.3958 292.8871 0002062  95.1689 264.9742 14.34218134429299
IRIDIUM 161             
1 43478U 18047C   26162.55319983  .00000273  00000+0  75187-4 0  9999
2 43478  86.4482  90.8267 0002555  86.7276 273.4217 14.43279844424322
IRIDIUM 152             
1 43479U 18047D   26162.31104525 -.00000008  00000+0 -98023-5 0  9991
2 43479  86.3957  90.7889 0002246  83.5993 276.5459 14.34217379421645
IRIDIUM 147             
1 43480U 18047E   26162.31738714  .00000049  00000+0  10551-4 0  9998
2 43480  86.3959  90.7913 0002160  84.9428 275.2015 14.34217761421649
IRIDIUM 110             
1 43481U 18047F   26162.53303626  .00000018  00000+0 -62414-6 0  9997
2 43481  86.3961  90.7930 0002596  84.9448 275.2044 14.34217716421661
IRIDIUM 162             
1 43482U 18047G   26162.54690503  .00000271  00000+0  74600-4 0  9990
2 43482  86.4480  90.7204 0002327  83.0053 277.1413 14.43278492424311
IRIDIUM 160             
1 43569U 18061A   26162.61840887 -.00000011  00000+0 -10892-4 0  9999
2 43569  86.3962  59.1256 0002179  85.6718 274.4727 14.34217334412579
IRIDIUM 166             
1 43570U 18061B   26162.43447321  .00000205  00000+0  66088-4 0  9998
2 43570  86.3967  59.1531 0002131  86.3489 273.7951 14.34217892412573
IRIDIUM 158             
1 43571U 18061C   26162.47252860  .00000071  00000+0  18249-4 0  9992
2 43571  86.3965  59.1474 0002246  82.2168 277.9283 14.34217718412542
IRIDIUM 165             
1 43572U 18061D   26162.42812804  .00000126  00000+0  37954-4 0  9993
2 43572  86.3969  59.2122 0002089  85.7877 274.3558 14.34216853412565
IRIDIUM 155             
1 43573U 18061E   26162.45984320  .00000017  00000+0 -11138-5 0  9997
2 43573  86.3963  59.0681 0002151  82.4579 277.6861 14.34217710412534
